SPACEMOBILE-004         
1 61049U 24163E   26183.54372906  .00005309  00000+0  25207-3 0  9997
2 61049  52.9656 238.3078 0008066 185.4439 174.6468 15.20809902100104
CZ-8A R/B               
1 66004U 25231K   26185.10136851 -.00000002  00000+0  57544-4 0  9997
2 66004  50.0053 327.3562 0116494 283.5563  75.2398 14.30159709 37368
SZ-21 MODULE            
1 66515U 25246C   26185.12311660  .00055651  00000+0  31914-3 0  9996
2 66515  41.4707 201.7323 0005514 137.2881 222.8393 15.77879108 36417
SPACEMOBILE-006         
1 67232U 25309A   26185.22043174  .00002391  00000+0  12925-3 0  9990
2 67232  52.9968 253.6112 0010752 179.3808 180.7201 15.18633254 29189
SPACEMOBILE-008         
1 69589U 26139A   26185.05379302  .00000301  00000+0  33918-4 0  9990
2 69589  52.9937 185.9907 0004483  29.1107 331.0134 15.12789669  2531
SPACEMOBILE-009         
1 69590U 26139B   26185.05496931  .00000313  00000+0  34671-4 0  9990
2 69590  52.9927 185.9939 0004696  23.9462 336.1747 15.12682985  2538
SPACEMOBILE-010         
1 69591U 26139C   26184.99076051  .00000338  00000+0  36225-4 0  9994
2 69591  52.9931 186.3077 0004553  14.6312 345.4810 15.12514031  2535
